{
  "type": "FeatureCollection",
  "features": [
    {
      "type": "Feature",
      "properties": {
        "norad_id": 40376,
        "name": "SMAP",
        "group": "resource",
        "lat": 81.70353128117951,
        "lon": -77.50390917242105,
        "alt_km": 674.0291049460475,
        "timestamp": "2025-12-22T11:33:20.086616+00:00",
        "meta_object_name": "SMAP",
        "meta_object_id": "2015-003A",
        "meta_epoch": "2025-12-22T02:56:53.400192",
        "meta_mean_motion": 14.63356263,
        "meta_eccentricity": 0.0001228,
        "meta_inclination": 98.1288,
        "meta_ra_of_asc_node": 0.7114,
        "meta_arg_of_pericenter": 91.5879,
        "meta_mean_anomaly": 268.5464,
        "meta_ephemeris_type": 0,
        "meta_classification_type": "U",
        "meta_norad_cat_id": 40376,
        "meta_element_set_no": 999,
        "meta_rev_at_epoch": 58172,
        "meta_bstar": 0.00010446,
        "meta_mean_motion_dot": 4.93e-06,
        "meta_mean_motion_ddot": 0,
        "tle_line1": "1 40376U 15003A   25356.12284028  .00000493  00000+0  10446-3 0  9990",
        "tle_line2": "2 40376  98.1288   0.7114 0001228  91.5879 268.5464 14.63356263581720"
      },
      "geometry": {
        "type": "Point",
        "coordinates": [
          -77.50390917242105,
          81.70353128117951
        ]
      }
    },
    {
      "type": "Feature",
      "properties": {
        "norad_id": 40536,
        "name": "KOMPSAT-3A",
        "group": "resource",
        "lat": 82.08676819690533,
        "lon": -104.75903065023886,
        "alt_km": 422.414575425928,
        "timestamp": "2025-12-22T11:33:20.086626+00:00",
        "meta_object_name": "KOMPSAT-3A",
        "meta_object_id": "2015-014A",
        "meta_epoch": "2025-12-22T04:57:18.507744",
        "meta_mean_motion": 15.44271182,
        "meta_eccentricity": 0.0005539,
        "meta_inclination": 97.6798,
        "meta_ra_of_asc_node": 331.0778,
        "meta_arg_of_pericenter": 106.0221,
        "meta_mean_anomaly": 254.1637,
        "meta_ephemeris_type": 0,
        "meta_classification_type": "U",
        "meta_norad_cat_id": 40536,
        "meta_element_set_no": 999,
        "meta_rev_at_epoch": 59441,
        "meta_bstar": 0.00044821,
        "meta_mean_motion_dot": 0.0002056,
        "meta_mean_motion_ddot": 0,
        "tle_line1": "1 40536U 15014A   25356.20646421  .00020560  00000+0  44821-3 0  9999",
        "tle_line2": "2 40536  97.6798 331.0778 0005539 106.0221 254.1637 15.44271182594415"
      },
      "geometry": {
        "type": "Point",
        "coordinates": [
          -104.75903065023886,
          82.08676819690533
        ]
      }
    },
    {
      "type": "Feature",
      "properties": {
        "norad_id": 40697,
        "name": "SENTINEL-2A",
        "group": "resource",
        "lat": -74.85963757610581,
        "lon": -145.0111876705687,
        "alt_km": 797.0791402052837,
        "timestamp": "2025-12-22T11:33:20.086636+00:00",
        "meta_object_name": "SENTINEL-2A",
        "meta_object_id": "2015-028A",
        "meta_epoch": "2025-12-22T05:19:15.464928",
        "meta_mean_motion": 14.30808532,
        "meta_eccentricity": 0.0001066,
        "meta_inclination": 98.574,
        "meta_ra_of_asc_node": 68.6214,
        "meta_arg_of_pericenter": 89.4574,
        "meta_mean_anomaly": 270.6731,
        "meta_ephemeris_type": 0,
        "meta_classification_type": "U",
        "meta_norad_cat_id": 40697,
        "meta_element_set_no": 999,
        "meta_rev_at_epoch": 54842,
        "meta_bstar": 1.0065e-05,
        "meta_mean_motion_dot": -1.7e-07,
        "meta_mean_motion_ddot": 0,
        "tle_line1": "1 40697U 15028A   25356.22170677 -.00000017  00000+0  10065-4 0  9999",
        "tle_line2": "2 40697  98.5740  68.6214 0001066  89.4574 270.6731 14.30808532548421"
      },
      "geometry": {
        "type": "Point",
        "coordinates": [
          -145.0111876705687,
          -74.85963757610581
        ]
      }
    },
    {
      "type": "Feature",
      "properties": {
        "norad_id": 40701,
        "name": "GAOFEN-8",
        "group": "resource",
        "lat": 56.99767537160234,
        "lon": 7.107252038284382,
        "alt_km": 436.26707988607996,
        "timestamp": "2025-12-22T11:33:20.086646+00:00",
        "meta_object_name": "GAOFEN-8",
        "meta_object_id": "2015-030A",
        "meta_epoch": "2025-12-22T04:47:06.394848",
        "meta_mean_motion": 15.38865779,
        "meta_eccentricity": 0.0011716,
        "meta_inclination": 97.6903,
        "meta_ra_of_asc_node": 174.8026,
        "meta_arg_of_pericenter": 106.0941,
        "meta_mean_anomaly": 254.1594,
        "meta_ephemeris_type": 0,
        "meta_classification_type": "U",
        "meta_norad_cat_id": 40701,
        "meta_element_set_no": 999,
        "meta_rev_at_epoch": 58416,
        "meta_bstar": 0.0018069,
        "meta_mean_motion_dot": 0.00070087,
        "meta_mean_motion_ddot": 0,
        "tle_line1": "1 40701U 15030A   25356.19937957  .00070087  00000+0  18069-2 0  9999",
        "tle_line2": "2 40701  97.6903 174.8026 0011716 106.0941 254.1594 15.38865779584166"
      },
      "geometry": {
        "type": "Point",
        "coordinates": [
          7.107252038284382,
          56.99767537160234
        ]
      }
    },
    {
      "type": "Feature",
      "properties": {
        "norad_id": 40718,
        "name": "CARBONITE 1 (CBNT-1)",
        "group": "resource",
        "lat": -72.86666805134413,
        "lon": -28.71449544058425,
        "alt_km": 630.5881177197516,
        "timestamp": "2025-12-22T11:33:20.086656+00:00",
        "meta_object_name": "CARBONITE 1 (CBNT-1)",
        "meta_object_id": "2015-032D",
        "meta_epoch": "2025-12-22T05:33:11.536128",
        "meta_mean_motion": 14.82781986,
        "meta_eccentricity": 0.0015044,
        "meta_inclination": 97.6396,
        "meta_ra_of_asc_node": 176.857,
        "meta_arg_of_pericenter": 150.3732,
        "meta_mean_anomaly": 209.8337,
        "meta_ephemeris_type": 0,
        "meta_classification_type": "U",
        "meta_norad_cat_id": 40718,
        "meta_element_set_no": 999,
        "meta_rev_at_epoch": 56311,
        "meta_bstar": 0.00013948,
        "meta_mean_motion_dot": 1.079e-05,
        "meta_mean_motion_ddot": 0,
        "tle_line1": "1 40718U 15032D   25356.23138352  .00001079  00000+0  13948-3 0  9993",
        "tle_line2": "2 40718  97.6396 176.8570 0015044 150.3732 209.8337 14.82781986563113"
      },
      "geometry": {
        "type": "Point",
        "coordinates": [
          -28.71449544058425,
          -72.86666805134413
        ]
      }
    },
    {
      "type": "Feature",
      "properties": {
        "norad_id": 40878,
        "name": "YAOGAN-27",
        "group": "resource",
        "lat": -54.482314793364935,
        "lon": 151.1994882787561,
        "alt_km": 1201.5879995562973,
        "timestamp": "2025-12-22T11:33:20.086666+00:00",
        "meta_object_name": "YAOGAN-27",
        "meta_object_id": "2015-040A",
        "meta_epoch": "2025-12-22T04:53:14.705952",
        "meta_mean_motion": 13.16059695,
        "meta_eccentricity": 0.0007565,
        "meta_inclination": 100.1007,
        "meta_ra_of_asc_node": 345.3954,
        "meta_arg_of_pericenter": 263.2393,
        "meta_mean_anomaly": 96.786,
        "meta_ephemeris_type": 0,
        "meta_classification_type": "U",
        "meta_norad_cat_id": 40878,
        "meta_element_set_no": 999,
        "meta_rev_at_epoch": 49438,
        "meta_bstar": -0.00021912,
        "meta_mean_motion_dot": -1.26e-06,
        "meta_mean_motion_ddot": 0,
        "tle_line1": "1 40878U 15040A   25356.20364243 -.00000126  00000+0 -21912-3 0  9990",
        "tle_line2": "2 40878 100.1007 345.3954 0007565 263.2393  96.7860 13.16059695494381"
      },
      "geometry": {
        "type": "Point",
        "coordinates": [
          151.1994882787561,
          -54.482314793364935
        ]
      }
    },
    {
      "type": "Feature",
      "properties": {
        "norad_id": 40894,
        "name": "GAOFEN-9 01",
        "group": "resource",
        "lat": 16.03087374098599,
        "lon": -142.77013216167515,
        "alt_km": 640.6045780179411,
        "timestamp": "2025-12-22T11:33:20.086676+00:00",
        "meta_object_name": "GAOFEN-9 01",
        "meta_object_id": "2015-047A",
        "meta_epoch": "2025-12-22T04:20:24.936288",
        "meta_mean_motion": 14.82444558,
        "meta_eccentricity": 0.0027623,
        "meta_inclination": 97.653,
        "meta_ra_of_asc_node": 34.7281,
        "meta_arg_of_pericenter": 3.8608,
        "meta_mean_anomaly": 356.2814,
        "meta_ephemeris_type": 0,
        "meta_classification_type": "U",
        "meta_norad_cat_id": 40894,
        "meta_element_set_no": 999,
        "meta_rev_at_epoch": 55396,
        "meta_bstar": 0.00013629,
        "meta_mean_motion_dot": 1.048e-05,
        "meta_mean_motion_ddot": 0,
        "tle_line1": "1 40894U 15047A   25356.18084417  .00001048  00000+0  13629-3 0  9992",
        "tle_line2": "2 40894  97.6530  34.7281 0027623   3.8608 356.2814 14.82444558553969"
      },
      "geometry": {
        "type": "Point",
        "coordinates": [
          -142.77013216167515,
          16.03087374098599
        ]
      }
    }
  ]
}